STARLINK-2223
1 17781C 21017BM  21326.11771243  .00007685  00000-0  51497-3 0  3267
2 17781  53.0559  53.2172 0001334  76.9384 331.6455 15.06386260    19
